start=new Date('2023-05-24T00:00:00.000Z').valueOf();
sats=[{"MEAN_MOTION_DOT":"0.00035419","MEAN_MOTION":"15.02025387","REF_FRAME":"TEME","DECAY_DATE":null,"MEAN_ELEMENT_THEORY":"SGP4","FILE":"3915766","ARG_OF_PERICENTER":"311.4406","MEAN_ANOMALY":"48.6359","SEMIMAJOR_AXIS":"6938.789","ECCENTRICITY":"0.00008960","PERIAPSIS":"560.032","OBJECT_NAME":"STARLINK-5609","CLASSIFICATION_TYPE":"U","RCS_SIZE":"LARGE","COUNTRY_CODE":"US","OBJECT_TYPE":"PAYLOAD","EPHEMERIS_TYPE":"0","NORAD_CAT_ID":"55348","PERIOD":"95.871","LAUNCH_DATE":"2023-01-26","TLE_LINE1":"1 55348U 23013T   23143.88407614  .00035419  00000-0  26595-2 0  9996","RA_OF_ASC_NODE":"87.1132","APOAPSIS":"561.275","SITE":"AFETR","CENTER_NAME":"EARTH","TLE_LINE2":"2 55348  43.0046  87.1132 0000896 311.4406  48.6359 15.02025387 18151","GP_ID":"232407170","BSTAR":"0.00265950000000","MEAN_MOTION_DDOT":"0.0000000000000","TIME_SYSTEM":"UTC","ELEMENT_SET_NO":"999","EPOCH":"2023-05-23T21:13:04.178496","INCLINATION":"43.0046","REV_AT_EPOCH":"1815","OBJECT_ID":"2023-013T"},{"MEAN_ANOMALY":"97.4783","ARG_OF_PERICENTER":"262.5879","FILE":"3915766","REF_FRAME":"TEME","MEAN_MOTION_DOT":"0.00002104","MEAN_MOTION":"15.02535276","DECAY_DATE":null,"MEAN_ELEMENT_THEORY":"SGP4","EPHEMERIS_TYPE":"0","PERIOD":"95.838","NORAD_CAT_ID":"55349","CLASSIFICATION_TYPE":"U","RCS_SIZE":"LARGE","COUNTRY_CODE":"US","OBJECT_TYPE":"PAYLOAD","ECCENTRICITY":"0.00015940","PERIAPSIS":"557.978","OBJECT_NAME":"STARLINK-5666","SEMIMAJOR_AXIS":"6937.219","APOAPSIS":"560.190","SITE":"AFETR","CENTER_NAME":"EARTH","TLE_LINE2":"2 55349  43.0036  87.0833 0001594 262.5879  97.4783 15.02535276 18150","RA_OF_ASC_NODE":"87.0833","TLE_LINE1":"1 55349U 23013U   23143.88087707  .00002104  00000-0  17077-3 0  9995","LAUNCH_DATE":"2023-01-26","REV_AT_EPOCH":"1815","INCLINATION":"43.0036","OBJECT_ID":"2023-013U","TIME_SYSTEM":"UTC","ELEMENT_SET_NO":"999","EPOCH":"2023-05-23T21:08:27.778848","MEAN_MOTION_DDOT":"0.0000000000000","GP_ID":"232407922","BSTAR":"0.00017077000000"},{"MEAN_ANOMALY":"79.1734","ARG_OF_PERICENTER":"280.8962","FILE":"3915766","REF_FRAME":"TEME","MEAN_MOTION_DOT":"0.00002612","MEAN_MOTION":"15.02532246","DECAY_DATE":null,"MEAN_ELEMENT_THEORY":"SGP4","EPHEMERIS_TYPE":"0","NORAD_CAT_ID":"55350","PERIOD":"95.838","RCS_SIZE":"LARGE","COUNTRY_CODE":"US","OBJECT_TYPE":"PAYLOAD","CLASSIFICATION_TYPE":"U","ECCENTRICITY":"0.00013070","OBJECT_NAME":"STARLINK-5668","PERIAPSIS":"558.186","SEMIMAJOR_AXIS":"6937.228","APOAPSIS":"560.000","SITE":"AFETR","TLE_LINE2":"2 55350  43.0039  87.0592 0001307 280.8962  79.1734 15.02532246 18152","CENTER_NAME":"EARTH","RA_OF_ASC_NODE":"87.0592","TLE_LINE1":"1 55350U 23013V   23143.87754680  .00002612  00000-0  20839-3 0  9991","LAUNCH_DATE":"2023-01-26","OBJECT_ID":"2023-013V","INCLINATION":"43.0039","REV_AT_EPOCH":"1815","TIME_SYSTEM":"UTC","EPOCH":"2023-05-23T21:03:40.043520","ELEMENT_SET_NO":"999","MEAN_MOTION_DDOT":"0.0000000000000","BSTAR":"0.00020839000000","GP_ID":"232408171"},{"MEAN_ANOMALY":"79.3139","ARG_OF_PERICENTER":"280.7554","FILE":"3915766","MEAN_MOTION_DOT":"0.00002121","REF_FRAME":"TEME","MEAN_MOTION":"15.02531090","DECAY_DATE":null,"MEAN_ELEMENT_THEORY":"SGP4","EPHEMERIS_TYPE":"0","NORAD_CAT_ID":"55351","PERIOD":"95.838","CLASSIFICATION_TYPE":"U","OBJECT_TYPE":"PAYLOAD","COUNTRY_CODE":"US","RCS_SIZE":"LARGE","ECCENTRICITY":"0.00013280","PERIAPSIS":"558.175","OBJECT_NAME":"STARLINK-5659","SEMIMAJOR_AXIS":"6937.232","SITE":"AFETR","APOAPSIS":"560.018","CENTER_NAME":"EARTH","TLE_LINE2":"2 55351  43.0041  86.9828 0001328 280.7554  79.3139 15.02531090 18152","RA_OF_ASC_NODE":"86.9828","TLE_LINE1":"1 55351U 23013W   23143.86755895  .00002121  00000-0  17209-3 0  9992","LAUNCH_DATE":"2023-01-26","INCLINATION":"43.0041","OBJECT_ID":"2023-013W","REV_AT_EPOCH":"1815","TIME_SYSTEM":"UTC","ELEMENT_SET_NO":"999","EPOCH":"2023-05-23T20:49:17.093280","MEAN_MOTION_DDOT":"0.0000000000000","GP_ID":"232406420","BSTAR":"0.00017209000000"},{"OBJECT_ID":"2023-013X","INCLINATION":"43.0039","REV_AT_EPOCH":"1815","TIME_SYSTEM":"UTC","EPOCH":"2023-05-23T20:55:40.517472","ELEMENT_SET_NO":"999","MEAN_MOTION_DDOT":"0.0000000000000","BSTAR":"0.00004595000000","GP_ID":"232406670","SITE":"AFETR","APOAPSIS":"560.318","TLE_LINE2":"2 55352  43.0039  87.0171 0001753 266.2688  93.7954 15.02529441 18154","CENTER_NAME":"EARTH","RA_OF_ASC_NODE":"87.0171","TLE_LINE1":"1 55352U 23013X   23143.87199673  .00000417  00000-0  45950-4 0  9991","LAUNCH_DATE":"2023-01-26","EPHEMERIS_TYPE":"0","PERIOD":"95.838","NORAD_CAT_ID":"55352","COUNTRY_CODE":"US","OBJECT_TYPE":"PAYLOAD","RCS_SIZE":"LARGE","CLASSIFICATION_TYPE":"U","ECCENTRICITY":"0.00017530","OBJECT_NAME":"STARLINK-5547","PERIAPSIS":"557.886","SEMIMAJOR_AXIS":"6937.237","MEAN_ANOMALY":"93.7954","ARG_OF_PERICENTER":"266.2688","FILE":"3915766","MEAN_MOTION":"15.02529441","MEAN_MOTION_DOT":"0.00000417","REF_FRAME":"TEME","DECAY_DATE":null,"MEAN_ELEMENT_THEORY":"SGP4"},{"EPHEMERIS_TYPE":"0","PERIOD":"95.838","NORAD_CAT_ID":"55353","CLASSIFICATION_TYPE":"U","RCS_SIZE":"LARGE","COUNTRY_CODE":"US","OBJECT_TYPE":"PAYLOAD","ECCENTRICITY":"0.00014240","PERIAPSIS":"558.107","OBJECT_NAME":"STARLINK-5608","SEMIMAJOR_AXIS":"6937.230","MEAN_ANOMALY":"85.7904","ARG_OF_PERICENTER":"274.2775","FILE":"3915766","MEAN_MOTION_DOT":"0.00002245","REF_FRAME":"TEME","MEAN_MOTION":"15.02531603","MEAN_ELEMENT_THEORY":"SGP4","DECAY_DATE":null,"OBJECT_ID":"2023-013Y","INCLINATION":"43.0041","REV_AT_EPOCH":"1816","TIME_SYSTEM":"UTC","ELEMENT_SET_NO":"999","EPOCH":"2023-05-23T22:01:01.938720","MEAN_MOTION_DDOT":"0.0000000000000","GP_ID":"232407422","BSTAR":"0.00018125000000","APOAPSIS":"560.083","SITE":"AFETR","CENTER_NAME":"EARTH","TLE_LINE2":"2 55353  43.0041  86.4968 0001424 274.2775  85.7904 15.02531603 18166","RA_OF_ASC_NODE":"86.4968","TLE_LINE1":"1 55353U 23013Y   23143.91738355  .00002245  00000-0  18125-3 0  9997","LAUNCH_DATE":"2023-01-26"},{"FILE":"3915766","MEAN_MOTION_DOT":"0.00001262","MEAN_MOTION":"15.02527272","REF_FRAME":"TEME","DECAY_DATE":null,"MEAN_ELEMENT_THEORY":"SGP4","MEAN_ANOMALY":"85.8848","ARG_OF_PERICENTER":"274.1844","ECCENTRICITY":"0.00013090","PERIAPSIS":"558.200","OBJECT_NAME":"STARLINK-5649","SEMIMAJOR_AXIS":"6937.243","EPHEMERIS_TYPE":"0","NORAD_CAT_ID":"55354","PERIOD":"95.839","CLASSIFICATION_TYPE":"U","RCS_SIZE":"LARGE","COUNTRY_CODE":"US","OBJECT_TYPE":"PAYLOAD","TLE_LINE1":"1 55354U 23013Z   23143.86977938  .00001262  00000-0  10851-3 0  9990","LAUNCH_DATE":"2023-01-26","SITE":"AFETR","APOAPSIS":"560.016","CENTER_NAME":"EARTH","TLE_LINE2":"2 55354  43.0037  87.0000 0001309 274.1844  85.8848 15.02527272 18158","RA_OF_ASC_NODE":"87.0000","MEAN_MOTION_DDOT":"0.0000000000000","GP_ID":"232407671","BSTAR":"0.00010851000000","REV_AT_EPOCH":"1815","OBJECT_ID":"2023-013Z","INCLINATION":"43.0037","TIME_SYSTEM":"UTC","ELEMENT_SET_NO":"999","EPOCH":"2023-05-23T20:52:28.938432"},{"ELEMENT_SET_NO":"999","EPOCH":"2023-05-23T22:18:37.234368","TIME_SYSTEM":"UTC","OBJECT_ID":"2023-013AA","INCLINATION":"43.0033","REV_AT_EPOCH":"1816","GP_ID":"232406921","BSTAR":"0.00011942000000","MEAN_MOTION_DDOT":"0.0000000000000","RA_OF_ASC_NODE":"86.5884","CENTER_NAME":"EARTH","TLE_LINE2":"2 55355  43.0033  86.5884 0001120 279.4677  80.6039 15.02527405 18166","APOAPSIS":"559.885","SITE":"AFETR","LAUNCH_DATE":"2023-01-26","TLE_LINE1":"1 55355U 23013AA  23143.92959762  .00001410  00000-0  11942-3 0  9990","CLASSIFICATION_TYPE":"U","RCS_SIZE":"LARGE","COUNTRY_CODE":"US","OBJECT_TYPE":"PAYLOAD","PERIOD":"95.839","NORAD_CAT_ID":"55355","EPHEMERIS_TYPE":"0","SEMIMAJOR_AXIS":"6937.243","PERIAPSIS":"558.331","OBJECT_NAME":"STARLINK-5647","ECCENTRICITY":"0.00011200","ARG_OF_PERICENTER":"279.4677","MEAN_ANOMALY":"80.6039","DECAY_DATE":null,"MEAN_ELEMENT_THEORY":"SGP4","MEAN_MOTION":"15.02527405","MEAN_MOTION_DOT":"0.00001410","REF_FRAME":"TEME","FILE":"3915766"},{"TIME_SYSTEM":"UTC","EPOCH":"2023-05-23T22:12:13.652064","ELEMENT_SET_NO":"999","INCLINATION":"43.0041","REV_AT_EPOCH":"1816","OBJECT_ID":"2023-013AC","BSTAR":"0.00003752400000","GP_ID":"232407171","MEAN_MOTION_DDOT":"0.0000000000000","RA_OF_ASC_NODE":"86.5543","SITE":"AFETR","APOAPSIS":"560.085","TLE_LINE2":"2 55357  43.0041  86.5543 0001403 257.6146 102.4539 15.02526179 18167","CENTER_NAME":"EARTH","LAUNCH_DATE":"2023-01-26","TLE_LINE1":"1 55357U 23013AC  23143.92515801  .00000303  00000-0  37524-4 0  9999","RCS_SIZE":"LARGE","COUNTRY_CODE":"US","OBJECT_TYPE":"PAYLOAD","CLASSIFICATION_TYPE":"U","EPHEMERIS_TYPE":"0","NORAD_CAT_ID":"55357","PERIOD":"95.839","SEMIMAJOR_AXIS":"6937.247","ECCENTRICITY":"0.00014030","OBJECT_NAME":"STARLINK-5651","PERIAPSIS":"558.138","ARG_OF_PERICENTER":"257.6146","MEAN_ANOMALY":"102.4539","MEAN_MOTION_DOT":"0.00000303","MEAN_MOTION":"15.02526179","REF_FRAME":"TEME","DECAY_DATE":null,"MEAN_ELEMENT_THEORY":"SGP4","FILE":"3915766"},{"PERIOD":"95.838","NORAD_CAT_ID":"55358","EPHEMERIS_TYPE":"0","RCS_SIZE":"LARGE","COUNTRY_CODE":"US","OBJECT_TYPE":"PAYLOAD","CLASSIFICATION_TYPE":"U","OBJECT_NAME":"STARLINK-5622","PERIAPSIS":"558.111","ECCENTRICITY":"0.00013830","SEMIMAJOR_AXIS":"6937.205","MEAN_ANOMALY":"86.9079","ARG_OF_PERICENTER":"273.1605","FILE":"3915766","MEAN_ELEMENT_THEORY":"SGP4","DECAY_DATE":null,"REF_FRAME":"TEME","MEAN_MOTION_DOT":"-0.00000395","MEAN_MOTION":"15.02539704","OBJECT_ID":"2023-013AD","INCLINATION":"43.0039","REV_AT_EPOCH":"1806","EPOCH":"2023-05-23T06:22:56.163648","ELEMENT_SET_NO":"999","TIME_SYSTEM":"UTC","MEAN_MOTION_DDOT":"0.0000000000000","BSTAR":"-0.00001420000000","GP_ID":"232407923","TLE_LINE2":"2 55358  43.0039  90.2095 0001383 273.1605  86.9079 15.02539704 18061","CENTER_NAME":"EARTH","APOAPSIS":"560.030","SITE":"AFETR","RA_OF_ASC_NODE":"90.2095","TLE_LINE1":"1 55358U 23013AD  23143.26592782 -.00000395  00000-0 -14200-4 0  9999","LAUNCH_DATE":"2023-01-26"}];
